{
  "type": "FeatureCollection",
  "features": [
    {
      "type": "Feature",
      "properties": {
        "norad_id": 28051,
        "name": "IRS-P6 (RESOURCESAT-1)",
        "group": "resource",
        "lat": -74.98150304216979,
        "lon": -175.19228838225047,
        "alt_km": 793.4404280782246,
        "timestamp": "2025-12-23T11:34:47.838470+00:00",
        "meta_object_name": "IRS-P6 (RESOURCESAT-1)",
        "meta_object_id": "2003-046A",
        "meta_epoch": "2025-12-23T05:43:54.258816",
        "meta_mean_motion": 14.36079503,
        "meta_eccentricity": 0.0064791,
        "meta_inclination": 98.2162,
        "meta_ra_of_asc_node": 37.1588,
        "meta_arg_of_pericenter": 149.309,
        "meta_mean_anomaly": 288.3017,
        "meta_ephemeris_type": 0,
        "meta_classification_type": "U",
        "meta_norad_cat_id": 28051,
        "meta_element_set_no": 999,
        "meta_rev_at_epoch": 15527,
        "meta_bstar": 9.8492e-05,
        "meta_mean_motion_dot": 2.53e-06,
        "meta_mean_motion_ddot": 0,
        "tle_line1": "1 28051U 03046A   25357.23882244  .00000253  00000+0  98492-4 0  9999",
        "tle_line2": "2 28051  98.2162  37.1588 0064791 149.3090 288.3017 14.36079503155278"
      },
      "geometry": {
        "type": "Point",
        "coordinates": [
          -175.19228838225047,
          -74.98150304216979
        ]
      }
    },
    {
      "type": "Feature",
      "properties": {
        "norad_id": 28220,
        "name": "SHIYAN-1 (SY-1)",
        "group": "resource",
        "lat": 82.06786117123748,
        "lon": -35.73664118478922,
        "alt_km": 476.5799330894715,
        "timestamp": "2025-12-23T11:34:47.838480+00:00",
        "meta_object_name": "SHIYAN-1 (SY-1)",
        "meta_object_id": "2004-012A",
        "meta_epoch": "2025-12-22T14:45:27.777312",
        "meta_mean_motion": 15.28385055,
        "meta_eccentricity": 0.0005157,
        "meta_inclination": 97.892,
        "meta_ra_of_asc_node": 58.737,
        "meta_arg_of_pericenter": 284.0622,
        "meta_mean_anomaly": 76.0043,
        "meta_ephemeris_type": 0,
        "meta_classification_type": "U",
        "meta_norad_cat_id": 28220,
        "meta_element_set_no": 999,
        "meta_rev_at_epoch": 18407,
        "meta_bstar": 0.00053103,
        "meta_mean_motion_dot": 0.00014614,
        "meta_mean_motion_ddot": 0,
        "tle_line1": "1 28220U 04012A   25356.61490483  .00014614  00000+0  53103-3 0  9997",
        "tle_line2": "2 28220  97.8920  58.7370 0005157 284.0622  76.0043 15.28385055184075"
      },
      "geometry": {
        "type": "Point",
        "coordinates": [
          -35.73664118478922,
          82.06786117123748
        ]
      }
    },
    {
      "type": "Feature",
      "properties": {
        "norad_id": 28376,
        "name": "AURA",
        "group": "resource",
        "lat": 43.88291202490195,
        "lon": -60.330975633980344,
        "alt_km": 685.6604825083514,
        "timestamp": "2025-12-23T11:34:47.838490+00:00",
        "meta_object_name": "AURA",
        "meta_object_id": "2004-026A",
        "meta_epoch": "2025-12-23T03:09:30.660768",
        "meta_mean_motion": 14.60969302,
        "meta_eccentricity": 0.0001403,
        "meta_inclination": 98.3201,
        "meta_ra_of_asc_node": 307.4072,
        "meta_arg_of_pericenter": 91.9299,
        "meta_mean_anomaly": 268.2062,
        "meta_ephemeris_type": 0,
        "meta_classification_type": "U",
        "meta_norad_cat_id": 28376,
        "meta_element_set_no": 999,
        "meta_rev_at_epoch": 14050,
        "meta_bstar": 0.00021273,
        "meta_mean_motion_dot": 9.95e-06,
        "meta_mean_motion_ddot": 0,
        "tle_line1": "1 28376U 04026A   25357.13160487  .00000995  00000+0  21273-3 0  9990",
        "tle_line2": "2 28376  98.3201 307.4072 0001403  91.9299 268.2062 14.60969302140507"
      },
      "geometry": {
        "type": "Point",
        "coordinates": [
          -60.330975633980344,
          43.88291202490195
        ]
      }
    },
    {
      "type": "Feature",
      "properties": {
        "norad_id": 28649,
        "name": "IRS-P5 (CARTOSAT-1)",
        "group": "resource",
        "lat": -44.88486916815388,
        "lon": 31.00809076977401,
        "alt_km": 603.3876765703735,
        "timestamp": "2025-12-23T11:34:47.838499+00:00",
        "meta_object_name": "IRS-P5 (CARTOSAT-1)",
        "meta_object_id": "2005-017A",
        "meta_epoch": "2025-12-22T19:40:14.057760",
        "meta_mean_motion": 14.90436364,
        "meta_eccentricity": 6.27e-05,
        "meta_inclination": 97.5483,
        "meta_ra_of_asc_node": 22.7855,
        "meta_arg_of_pericenter": 55.0541,
        "meta_mean_anomaly": 305.0736,
        "meta_ephemeris_type": 0,
        "meta_classification_type": "U",
        "meta_norad_cat_id": 28649,
        "meta_element_set_no": 999,
        "meta_rev_at_epoch": 11754,
        "meta_bstar": 0.00015078676,
        "meta_mean_motion_dot": 1.417e-05,
        "meta_mean_motion_ddot": 0,
        "tle_line1": "1 28649U 05017A   25356.81960715  .00001417  00000+0  15079-3 0  9997",
        "tle_line2": "2 28649  97.5483  22.7855 0000627  55.0541 305.0736 14.90436364117543"
      },
      "geometry": {
        "type": "Point",
        "coordinates": [
          31.00809076977401,
          -44.88486916815388
        ]
      }
    },
    {
      "type": "Feature",
      "properties": {
        "norad_id": 28893,
        "name": "SINAH 1",
        "group": "resource",
        "lat": 6.723013647247087,
        "lon": 125.08738154461824,
        "alt_km": 684.0974894926458,
        "timestamp": "2025-12-23T11:34:47.838509+00:00",
        "meta_object_name": "SINAH 1",
        "meta_object_id": "2005-043D",
        "meta_epoch": "2025-12-23T03:20:50.054208",
        "meta_mean_motion": 14.63972952,
        "meta_eccentricity": 0.0015696,
        "meta_inclination": 98.2609,
        "meta_ra_of_asc_node": 125.7248,
        "meta_arg_of_pericenter": 106.6569,
        "meta_mean_anomaly": 253.6357,
        "meta_ephemeris_type": 0,
        "meta_classification_type": "U",
        "meta_norad_cat_id": 28893,
        "meta_element_set_no": 999,
        "meta_rev_at_epoch": 7476,
        "meta_bstar": 8.9696e-05,
        "meta_mean_motion_dot": 4.21e-06,
        "meta_mean_motion_ddot": 0,
        "tle_line1": "1 28893U 05043D   25357.13946822  .00000421  00000+0  89696-4 0  9997",
        "tle_line2": "2 28893  98.2609 125.7248 0015696 106.6569 253.6357 14.63972952 74768"
      },
      "geometry": {
        "type": "Point",
        "coordinates": [
          125.08738154461824,
          6.723013647247087
        ]
      }
    },
    {
      "type": "Feature",
      "properties": {
        "norad_id": 29079,
        "name": "EROS B",
        "group": "resource",
        "lat": 31.30282342544147,
        "lon": -60.90613813537853,
        "alt_km": 355.0303487381989,
        "timestamp": "2025-12-23T11:34:47.838518+00:00",
        "meta_object_name": "EROS B",
        "meta_object_id": "2006-014A",
        "meta_epoch": "2025-12-23T04:50:18.163968",
        "meta_mean_motion": 15.7157862,
        "meta_eccentricity": 0.0003997,
        "meta_inclination": 97.3465,
        "meta_ra_of_asc_node": 114.2984,
        "meta_arg_of_pericenter": 310.6693,
        "meta_mean_anomaly": 49.4222,
        "meta_ephemeris_type": 0,
        "meta_classification_type": "U",
        "meta_norad_cat_id": 29079,
        "meta_element_set_no": 999,
        "meta_rev_at_epoch": 9244,
        "meta_bstar": 0.0015355,
        "meta_mean_motion_dot": 0.00201072,
        "meta_mean_motion_ddot": 0,
        "tle_line1": "1 29079U 06014A   25357.20159912  .00201072  00000+0  15355-2 0  9991",
        "tle_line2": "2 29079  97.3465 114.2984 0003997 310.6693  49.4222 15.71578620 92442"
      },
      "geometry": {
        "type": "Point",
        "coordinates": [
          -60.90613813537853,
          31.30282342544147
        ]
      }
    },
    {
      "type": "Feature",
      "properties": {
        "norad_id": 29228,
        "name": "RESURS-DK 1",
        "group": "resource",
        "lat": 11.59664163526051,
        "lon": 78.37796151106478,
        "alt_km": 532.8693164951901,
        "timestamp": "2025-12-23T11:34:47.838527+00:00",
        "meta_object_name": "RESURS-DK 1",
        "meta_object_id": "2006-021A",
        "meta_epoch": "2025-12-22T11:42:44.959104",
        "meta_mean_motion": 15.1221149,
        "meta_eccentricity": 0.00068667,
        "meta_inclination": 69.9337,
        "meta_ra_of_asc_node": 76.645,
        "meta_arg_of_pericenter": 250.3556,
        "meta_mean_anomaly": 109.6869,
        "meta_ephemeris_type": 0,
        "meta_classification_type": "U",
        "meta_norad_cat_id": 29228,
        "meta_element_set_no": 999,
        "meta_rev_at_epoch": 7585,
        "meta_bstar": 0.00015666054,
        "meta_mean_motion_dot": 2.606e-05,
        "meta_mean_motion_ddot": 0,
        "tle_line1": "1 29228U 06021A   25356.48802036  .00002606  00000+0  15666-3 0  9994",
        "tle_line2": "2 29228  69.9337  76.6450 0006866 250.3556 109.6869 15.12211490 75852"
      },
      "geometry": {
        "type": "Point",
        "coordinates": [
          78.37796151106478,
          11.59664163526051
        ]
      }
    }
  ]
}